$$SOE
2460721.500000000, A.D. 2025-Feb-15 00:00:00.0000, -2.579773347243053E+07, 3.454309772225955E+08, -4.020274099267319E+06,
2460728.500000000, A.D. 2025-Feb-22 00:00:00.0000, -3.712616616820513E+07, 3.436001899360501E+08, -4.600650708745643E+06,
2460735.500000000, A.D. 2025-Mar-01 00:00:00.0000, -4.841086252895237E+07, 3.413656011599039E+08, -5.175617957232848E+06,
2460742.500000000, A.D. 2025-Mar-08 00:00:00.0000, -5.963815026438072E+07, 3.387269973084684E+08, -5.744456766388163E+06,
2460749.500000000, A.D. 2025-Mar-15 00:00:00.0000, -7.079421734540947E+07, 3.356845728474491E+08, -6.306443929765686E+06,
2460756.500000000, A.D. 2025-Mar-22 00:00:00.0000, -8.186512114416464E+07, 3.322389436492782E+08, -6.860852331943482E+06,
2460763.500000000, A.D. 2025-Mar-29 00:00:00.0000, -9.283679701650745E+07, 3.283911584808656E+08, -7.406951521643564E+06,
2460770.500000000, A.D. 2025-Apr-05 00:00:00.0000, -1.036950660727518E+08, 3.241427117364009E+08, -7.944008415809691E+06,
2460777.500000000, A.D. 2025-Apr-12 00:00:00.0000, -1.144256441261345E+08, 3.194955574884691E+08, -8.471287953822657E+06,
2460784.500000000, A.D. 2025-Apr-19 00:00:00.0000, -1.250141520715597E+08, 3.144521239323694E+08, -8.988053760035455E+06,
2460791.500000000, A.D. 2025-Apr-26 00:00:00.0000, -1.354461274916025E+08, 3.090153279714240E+08, -9.493568859338582E+06,
2460798.500000000, A.D. 2025-May-03 00:00:00.0000, -1.457070374453179E+08, 3.031885899080198E+08, -9.987096457933798E+06,
2460805.500000000, A.D. 2025-May-10 00:00:00.0000, -1.557822924801520E+08, 2.969758481876199E+08, -1.046790079452337E+07,
2460812.500000000, A.D. 2025-May-17 00:00:00.0000, -1.656572618983133E+08, 2.903815740852769E+08, -1.093524807179563E+07,
2460819.500000000, A.D. 2025-May-24 00:00:00.0000, -1.753172901703877E+08, 2.834107862019730E+08, -1.138840749154623E+07,
2460826.500000000, A.D. 2025-May-31 00:00:00.0000, -1.847477141434290E+08, 2.760690649940921E+08, -1.182665240898909E+07,
2460833.500000000, A.D. 2025-Jun-07 00:00:00.0000, -1.939338815086902E+08, 2.683625684445564E+08, -1.224926147362517E+07,
2460840.500000000, A.D. 2025-Jun-14 00:00:00.0000, -2.028611729552131E+08, 2.602980481076968E+08, -1.265551959750676E+07,
2460847.500000000, A.D. 2025-Jun-21 00:00:00.0000, -2.115150268405950E+08, 2.518828621432018E+08, -1.304471913195300E+07,
2460854.500000000, A.D. 2025-Jun-28 00:00:00.0000, -2.198809632930954E+08, 2.431249869673433E+08, -1.341616139491686E+07,
2460861.500000000, A.D. 2025-Jul-05 00:00:00.0000, -2.279446093103846E+08, 2.340330295396529E+08, -1.376915823489712E+07,
2460868.500000000, A.D. 2025-Jul-12 00:00:00.0000, -2.356917260810210E+08, 2.246162393395979E+08, -1.410303358982958E+07,
2460875.500000000, A.D. 2025-Jul-19 00:00:00.0000, -2.431082383585279E+08, 2.148845193017555E+08, -1.441712510519588E+07,
2460882.500000000, A.D. 2025-Jul-26 00:00:00.0000, -2.501802656875557E+08, 2.048484354838708E+08, -1.471078583406185E+07,
2460889.500000000, A.D. 2025-Aug-02 00:00:00.0000, -2.568941554142029E+08, 1.945192253115714E+08, -1.498338602152769E+07,
2460896.500000000, A.D. 2025-Aug-09 00:00:00.0000, -2.632365174398013E+08, 1.839088041989931E+08, -1.523431497440411E+07,
2460903.500000000, A.D. 2025-Aug-16 00:00:00.0000, -2.691942606071145E+08, 1.730297702881907E+08, -1.546298302483782E+07,
2460910.500000000, A.D. 2025-Aug-23 00:00:00.0000, -2.747546303733897E+08, 1.618954071229083E+08, -1.566882360874208E+07,
2460917.500000000, A.D. 2025-Aug-30 00:00:00.0000, -2.799052473678830E+08, 1.505196847635939E+08, -1.585129542496398E+07,
2460924.500000000, A.D. 2025-Sep-06 00:00:00.0000, -2.846341481588409E+08, 1.389172601321664E+08, -1.600988445658413E+07,
2460931.500000000, A.D. 2025-Sep-13 00:00:00.0000, -2.889298297894531E+08, 1.271034738936364E+08, -1.614410589720011E+07,
2460938.500000000, A.D. 2025-Sep-20 00:00:00.0000, -2.927812946678990E+08, 1.150943420254848E+08, -1.625350640810483E+07,
2460945.500000000, A.D. 2025-Sep-27 00:00:00.0000, -2.961780945747331E+08, 1.029065449760158E+08, -1.633766653651950E+07,
2460952.500000000, A.D. 2025-Oct-04 00:00:00.0000, -2.991103756113806E+08, 9.055741474179843E+07, -1.639620305389689E+07,
2460959.500000000, A.D. 2025-Oct-11 00:00:00.0000, -3.015689242515593E+08, 7.806491873273554E+07, -1.642877124641177E+07,
2460966.500000000, A.D. 2025-Oct-18 00:00:00.0000, -3.035452139646211E+08, 6.544763998044788E+07, -1.643506719291754E+07,
2460973.500000000, A.D. 2025-Oct-25 00:00:00.0000, -3.050314519881213E+08, 5.272475354755925E+07, -1.641483002603324E+07,
2460980.500000000, A.D. 2025-Nov-01 00:00:00.0000, -3.060206258920970E+08, 3.991599901883821E+07, -1.636784415932843E+07,
2460987.500000000, A.D. 2025-Nov-08 00:00:00.0000, -3.065065495510969E+08, 2.704164892620360E+07, -1.629394146423031E+07,
2460994.500000000, A.D. 2025-Nov-15 00:00:00.0000, -3.064839080075765E+08, 1.412247295257033E+07, -1.619300339275478E+07,
2461001.500000000, A.D. 2025-Nov-22 00:00:00.0000, -3.059483004476609E+08, 1.179698070256616E+06, -1.606496304533107E+07,
2461008.500000000, A.D. 2025-Nov-29 00:00:00.0000, -3.048962810568436E+08, -1.176503426944267E+07, -1.590980705931977E+07,
2461015.500000000, A.D. 2025-Dec-06 00:00:00.0000, -3.033253996312762E+08, -2.468971400059326E+07, -1.572757710255754E+07,
2461022.500000000, A.D. 2025-Dec-13 00:00:00.0000, -3.012342410961020E+08, -3.757201465318950E+07, -1.551837126804002E+07,
2461029.500000000, A.D. 2025-Dec-20 00:00:00.0000, -2.986224600112612E+08, -5.038935075827761E+07, -1.528234558530798E+07,
2461036.500000000, A.D. 2025-Dec-27 00:00:00.0000, -2.954908106980093E+08, -6.311893767846549E+07, -1.501971531442227E+07,
2461043.500000000, A.D. 2026-Jan-03 00:00:00.0000, -2.918411740073923E+08, -7.573785425934285E+07, -1.473075591609715E+07,
2461050.500000000, A.D. 2026-Jan-10 00:00:00.0000, -2.876765802073226E+08, -8.822310871296331E+07, -1.441580374441795E+07,
2461057.500000000, A.D. 2026-Jan-17 00:00:00.0000, -2.830012273682029E+08, -1.005517074998187E+08, -1.407525647377408E+07,
2461064.500000000, A.D. 2026-Jan-24 00:00:00.0000, -2.778204948056650E+08, -1.127007268068676E+08, -1.370957324889742E+07,
2461071.500000000, A.D. 2026-Jan-31 00:00:00.0000, -2.721409512252538E+08, -1.246473862009237E+08, -1.331927454619951E+07,
2461078.500000000, A.D. 2026-Feb-07 00:00:00.0000, -2.659703572173747E+08, -1.363691240420111E+08, -1.290494174487370E+07,
2461085.500000000, A.D. 2026-Feb-14 00:00:00.0000, -2.593176616081974E+08, -1.478436741583130E+08, -1.246721642334682E+07,
2461092.500000000, A.D. 2026-Feb-21 00:00:00.0000, -2.521929910921765E+08, -1.590491426560088E+08, -1.200679936367557E+07,
2461099.500000000, A.D. 2026-Feb-28 00:00:00.0000, -2.446076341026642E+08, -1.699640831313724E+08, -1.152444906761086E+07,
2461106.500000000, A.D. 2026-Mar-07 00:00:00.0000, -2.365740209145238E+08, -1.805675716366943E+08, -1.102097975632907E+07,
2461113.500000000, A.D. 2026-Mar-14 00:00:00.0000, -2.281056972111221E+08, -1.908392831257361E+08, -1.049725930490577E+07,
2461120.500000000, A.D. 2026-Mar-21 00:00:00.0000, -2.192172894151687E+08, -2.007595658687184E+08, -9.954207047373027E+06,
2461127.500000000, A.D. 2026-Mar-28 00:00:00.0000, -2.099244639434717E+08, -2.103095121964205E+08, -9.392791195723265E+06,
2461134.500000000, A.D. 2026-Apr-04 00:00:00.0000, -2.002438812058966E+08, -2.194710259399697E+08, -8.814025911394015E+06,
2461141.500000000, A.D. 2026-Apr-11 00:00:00.0000, -1.901931443575663E+08, -2.282268863554704E+08, -8.218968103125900E+06,
2461148.500000000, A.D. 2026-Apr-18 00:00:00.0000, -1.797907429974191E+08, -2.365608080095465E+08, -7.608713989945918E+06,
2461155.500000000, A.D. 2026-Apr-25 00:00:00.0000, -1.690559921864372E+08, -2.444574961239835E+08, -6.984395458443016E+06,
2461162.500000000, A.D. 2026-May-02 00:00:00.0000, -1.580089672301281E+08, -2.519026969693313E+08, -6.347176247408375E+06,
2461169.500000000, A.D. 2026-May-09 00:00:00.0000, -1.466704346227275E+08, -2.588832429892029E+08, -5.698248006289542E+06,
2461176.500000000, A.D. 2026-May-16 00:00:00.0000, -1.350617793370315E+08, -2.653870921940583E+08, -5.038826281985715E+06,
2461183.500000000, A.D. 2026-May-23 00:00:00.0000, -1.232049290007731E+08, -2.714033605433161E+08, -4.370146387310162E+06,
2461190.500000000, A.D. 2026-May-30 00:00:00.0000, -1.111222776490185E+08, -2.769223468027384E+08, -3.693458967120051E+06,
2461197.500000000, A.D. 2026-Jun-06 00:00:00.0000, -9.883660998667608E+07, -2.819355530288761E+08, -3.010025534059361E+06,
2461204.500000000, A.D. 2026-Jun-13 00:00:00.0000, -8.637102311157124E+07, -2.864357004408045E+08, -2.321114327714846E+06,
2461211.500000000, A.D. 2026-Jun-20 00:00:00.0000, -7.374884680975522E+07, -2.904167377913480E+08, -1.627996245154932E+06,
2461218.500000000, A.D. 2026-Jun-27 00:00:00.0000, -6.099356471856835E+07, -2.938738426889347E+08, -9.319407465649992E+05,
2461225.500000000, A.D. 2026-Jul-04 00:00:00.0000, -4.812873693518724E+07, -2.968034168228892E+08, -2.342118290500641E+05,
2461232.500000000, A.D. 2026-Jul-11 00:00:00.0000, -3.517792436618874E+07, -2.992030754589052E+08, 4.639358700044602E+05,
2461239.500000000, A.D. 2026-Jul-18 00:00:00.0000, -2.216461523516673E+07, -3.010716314636335E+08, 1.161260808712274E+06,
2461246.500000000, A.D. 2026-Jul-25 00:00:00.0000, -9.112154186982568E+06, -3.024090741886398E+08, 1.856538091669366E+06,
2461253.500000000, A.D. 2026-Aug-01 00:00:00.0000, 3.956325643032001E+06, -3.032165436373993E+08, 2.548562809929326E+06,
2461260.500000000, A.D. 2026-Aug-08 00:00:00.0000, 1.701796744060797E+07, -3.034963003550962E+08, 3.236153133392408E+06,
2461267.500000000, A.D. 2026-Aug-15 00:00:00.0000, 3.005025250372931E+07, -3.032516910089621E+08, 3.918153142938718E+06,
2461274.500000000, A.D. 2026-Aug-22 00:00:00.0000, 4.303105799758375E+07, -3.024871088633952E+08, 4.593435561645016E+06,
2461281.500000000, A.D. 2026-Aug-29 00:00:00.0000, 5.593870819639262E+07, -3.012079509576156E+08, 5.260904473376304E+06,
$$EOE